OBJECT_NAME,OBJECT_ID,EPOCH,MEAN_MOTION,ECCENTRICITY,INCLINATION,RA_OF_ASC_NODE,ARG_OF_PERICENTER,MEAN_ANOMALY,EPHEMERIS_TYPE,CLASSIFICATION_TYPE,NORAD_CAT_ID,ELEMENT_SET_NO,REV_AT_EPOCH,BSTAR,MEAN_MOTION_DOT,MEAN_MOTION_DDOT
NIMIQ 4,2008-044A,2026-06-16T12:37:26.550336,1.00267926,.0002102,0.0333,43.7554,37.9696,290.4637,0,U,33373,999,6497,0,0,0
GALAXY 19 (G-19),2008-045A,2026-06-16T14:15:51.033024,1.00271205,.00024259,0.0377,264.3098,184.3605,293.1588,0,U,33376,999,6489,0,-.141E-5,0
ASTRA 1M,2008-057A,2026-06-16T02:50:23.170272,1.00271117,.00046535,0.2941,82.4376,24.1649,219.7454,0,U,33436,999,4572,0,.12E-5,0
EUTELSAT HOTBIRD 13C,2008-065A,2026-06-16T12:46:30.666432,1.00271031,.00032796,2.9491,79.1987,5.4937,321.4422,0,U,33459,999,4733,0,-.286E-5,0
EXPRESS-AM44,2009-007A,2026-06-16T15:26:53.943360,1.00270943,.00038144,3.4616,78.3953,0.1626,47.0675,0,U,33595,999,5228,0,-.94E-6,0
NSS-9,2009-008A,2026-06-16T13:53:08.210400,1.00269789,.00019533,1.2607,82.6609,343.6224,229.9139,0,U,33749,999,6351,0,.69E-6,0
TELSTAR 11N,2009-009A,2026-06-16T10:14:16.961280,1.00270537,.0002136,0.0155,50.7222,36.2295,293.7545,0,U,34111,999,4623,0,-.252E-5,0
WGS F2 (USA 204),2009-017A,2026-06-16T13:17:20.209632,1.00270963,.00004145,0.0169,359.3202,258.5494,263.7920,0,U,34713,999,4561,0,.66E-6,0
SES-7 (PROTOSTAR 2),2009-027A,2026-06-16T15:43:37.626240,1.00271176,.00006843,0.0371,63.6212,143.5886,41.8939,0,U,34941,999,6262,0,-.347E-5,0
MEASAT-3A,2009-032A,2026-06-16T13:46:31.344096,1.00271547,.00028337,0.0221,347.6543,92.7043,191.1202,0,U,35362,999,802,0,-.112E-5,0
GOES 14,2009-033A,2026-06-16T13:41:22.217856,1.00110976,.00017388,1.6889,83.0498,11.3263,157.9899,0,U,35491,999,658,0,-.292E-5,0
FM-5,2009-034A,2026-06-16T12:36:19.156608,1.00269209,.00009255,0.0218,291.7689,12.8317,63.1176,0,U,35493,999,4663,0,-.202E-5,0
TERRESTAR-1,2009-035A,2026-06-16T11:54:38.688768,1.00267953,.00023902,5.1798,48.8008,36.7328,246.8682,0,U,35496,999,6212,0,-.61E-6,0
ASIASAT 5,2009-042A,2026-06-16T15:12:10.501632,1.00267402,.00015697,0.0251,37.2465,48.0391,148.2120,0,U,35696,999,6170,0,0,0
JCSAT-12 (JCSAT-RA),2009-044A,2026-06-16T14:28:42.905568,1.00271385,.00004373,0.0113,342.8750,334.3060,296.9116,0,U,35755,999,6160,0,-.33E-5,0
OPTUS D3,2009-044B,2026-06-16T10:20:06.345600,1.00272419,.00027822,0.8754,268.9867,176.5665,130.3154,0,U,35756,999,6155,0,-.146E-5,0
NIMIQ 5,2009-050A,2026-06-16T12:39:48.821760,1.00270234,.00026102,0.0161,321.2221,120.1484,300.6836,0,U,35873,999,6133,0,-.258E-5,0
AMAZONAS 2,2009-054A,2026-06-16T11:12:38.833632,1.00268799,.00031617,1.8142,83.0573,358.2494,279.5779,0,U,35942,999,6117,0,-.261E-5,0
COMSATBW-1,2009-054B,2026-06-16T09:53:36.583008,1.00273008,.00027474,0.0800,78.1600,13.2105,24.7411,0,U,35943,999,6130,0,.23E-6,0
NSS-12,2009-058A,2026-06-16T13:17:12.722208,1.00273918,.00045072,0.0439,50.8482,0.7114,109.5769,0,U,36032,999,6091,0,.69E-6,0
THOR 6,2009-058B,2026-06-16T02:44:38.721120,1.00270783,.00015415,0.0157,85.7993,353.7183,225.1915,0,U,36033,999,6099,0,-.1E-6,0
INTELSAT 14 (IS-14),2009-064A,2026-06-16T11:05:19.784256,1.00270268,.00021779,0.0189,298.2043,140.3082,307.5568,0,U,36097,999,6059,0,-.275E-5,0
EUTELSAT 36B,2009-065A,2026-06-16T13:15:20.402208,1.00273556,.00057807,0.4903,81.0964,2.4462,70.6165,0,U,36101,999,6070,0,.11E-5,0
INTELSAT 15 (IS-15),2009-067A,2026-06-16T11:42:31.217184,1.00270396,.00020285,0.0137,308.7498,139.6672,77.1128,0,U,36106,999,4122,0,-.186E-5,0
WGS F3 (USA 211),2009-068A,2026-06-15T12:26:33.223776,1.00270178,.00000895,0.3277,85.8019,198.8023,35.8414,0,U,36108,999,4657,0,.67E-6,0
DIRECTV 12,2009-075A,2026-06-16T14:14:13.687872,1.00272950,.00004114,0.0102,111.7598,292.3643,331.5752,0,U,36131,999,4654,0,-.106E-5,0
BEIDOU-2 G1,2010-001A,2026-06-16T15:23:24.425088,1.00270454,.0002273,4.2916,60.4060,296.2190,279.6067,0,U,36287,999,6016,0,-.285E-5,0
SDO,2010-005A,2026-06-16T10:27:56.144736,1.00269931,.00017225,34.6505,86.3529,45.0039,188.2479,0,U,36395,999,6005,0,-.97E-6,0
INTELSAT 16 (IS-16),2010-006A,2026-06-16T12:39:11.382048,1.00269164,.00019403,0.0158,311.4266,154.3895,272.5641,0,U,36397,999,5964,0,-.246E-5,0
EWS-G2 (GOES 15),2010-008A,2026-06-16T13:19:05.043072,1.00275917,.00054505,1.2764,82.8686,42.7522,42.6897,0,U,36411,999,5963,0,.15E-6,0
ECHOSTAR 14,2010-010A,2026-06-16T14:09:36.630720,1.00272580,.00023396,0.0445,83.9997,19.9744,254.4087,0,U,36499,999,4654,0,-.2E-7,0
SES-1,2010-016A,2026-06-16T14:14:43.640160,1.00271096,.00024959,0.0127,336.0598,108.1319,293.3511,0,U,36516,999,5902,0,-.116E-5,0
