NIMIQ 4                 
1 33373U 08044A   26167.52600174  .00000000  00000+0  00000+0 0  9990
2 33373   0.0333  43.7554 0002102  37.9696 290.4637  1.00267926 64973
GALAXY 19 (G-19)        
1 33376U 08045A   26167.59434066 -.00000141  00000+0  00000+0 0  9993
2 33376   0.0377 264.3098 0002425 184.3605 293.1588  1.00271205 64894
ASTRA 1M                
1 33436U 08057A   26167.11832373  .00000120  00000+0  00000+0 0  9990
2 33436   0.2941  82.4376 0004653  24.1649 219.7454  1.00271117 45721
EUTELSAT HOTBIRD 13C    
1 33459U 08065A   26167.53229938 -.00000286  00000+0  00000+0 0  9991
2 33459   2.9491  79.1987 0003279   5.4937 321.4422  1.00271031 47331
EXPRESS-AM44            
1 33595U 09007A   26167.64367990 -.00000094  00000+0  00000+0 0  9999
2 33595   3.4616  78.3953 0003814   0.1626  47.0675  1.00270943 52285
NSS-9                   
1 33749U 09008A   26167.57856725  .00000069  00000+0  00000+0 0  9993
2 33749   1.2607  82.6609 0001953 343.6224 229.9139  1.00269789 63519
TELSTAR 11N             
1 34111U 09009A   26167.42658520 -.00000252  00000+0  00000+0 0  9990
2 34111   0.0155  50.7222 0002136  36.2295 293.7545  1.00270537 46235
WGS F2 (USA 204)        
1 34713U 09017A   26167.55370613  .00000066  00000+0  00000+0 0  9997
2 34713   0.0169 359.3202 0000414 258.5494 263.7920  1.00270963 45619
SES-7 (PROTOSTAR 2)     
1 34941U 09027A   26167.65529660 -.00000347  00000+0  00000+0 0  9993
2 34941   0.0371  63.6212 0000684 143.5886  41.8939  1.00271176 62622
MEASAT-3A               
1 35362U 09032A   26167.57397389 -.00000112  00000+0  00000+0 0  9999
2 35362   0.0221 347.6543 0002833  92.7043 191.1202  1.00271547  8022
GOES 14                 
1 35491U 09033A   26167.57039604 -.00000292  00000+0  00000+0 0  9995
2 35491   1.6889  83.0498 0001738  11.3263 157.9899  1.00110976  6585
FM-5                    
1 35493U 09034A   26167.52522172 -.00000202  00000+0  00000+0 0  9991
2 35493   0.0218 291.7689 0000925  12.8317  63.1176  1.00269209 46639
TERRESTAR-1             
1 35496U 09035A   26167.49628112 -.00000061  00000+0  00000+0 0  9995
2 35496   5.1798  48.8008 0002390  36.7328 246.8682  1.00267953 62120
ASIASAT 5               
1 35696U 09042A   26167.63345488  .00000000  00000+0  00000+0 0  9995
2 35696   0.0251  37.2465 0001569  48.0391 148.2120  1.00267402 61706
JCSAT-12 (JCSAT-RA)     
1 35755U 09044A   26167.60327437 -.00000330  00000+0  00000+0 0  9991
2 35755   0.0113 342.8750 0000437 334.3060 296.9116  1.00271385 61608
OPTUS D3                
1 35756U 09044B   26167.43062900 -.00000146  00000+0  00000+0 0  9999
2 35756   0.8754 268.9867 0002782 176.5665 130.3154  1.00272419 61553
NIMIQ 5                 
1 35873U 09050A   26167.52764840 -.00000258  00000+0  00000+0 0  9992
2 35873   0.0161 321.2221 0002610 120.1484 300.6836  1.00270234 61336
AMAZONAS 2              
1 35942U 09054A   26167.46711613 -.00000261  00000+0  00000+0 0  9990
2 35942   1.8142  83.0573 0003161 358.2494 279.5779  1.00268799 61176
COMSATBW-1              
1 35943U 09054B   26167.41222897  .00000023  00000+0  00000+0 0  9992
2 35943   0.0800  78.1600 0002747  13.2105  24.7411  1.00273008 61308
NSS-12                  
1 36032U 09058A   26167.55361947  .00000069  00000+0  00000+0 0  9991
2 36032   0.0439  50.8482 0004507   0.7114 109.5769  1.00273918 60912
THOR 6                  
1 36033U 09058B   26167.11433705 -.00000010  00000+0  00000+0 0  9993
2 36033   0.0157  85.7993 0001541 353.7183 225.1915  1.00270783 60999
INTELSAT 14 (IS-14)     
1 36097U 09064A   26167.46203454 -.00000275  00000+0  00000+0 0  9997
2 36097   0.0189 298.2043 0002177 140.3082 307.5568  1.00270268 60598
EUTELSAT 36B            
1 36101U 09065A   26167.55231947  .00000110  00000+0  00000+0 0  9999
2 36101   0.4903  81.0964 0005780   2.4462  70.6165  1.00273556 60702
INTELSAT 15 (IS-15)     
1 36106U 09067A   26167.48786131 -.00000186  00000+0  00000+0 0  9992
2 36106   0.0137 308.7498 0002028 139.6672  77.1128  1.00270396 41227
WGS F3 (USA 211)        
1 36108U 09068A   26166.51844009  .00000067  00000+0  00000+0 0  9994
2 36108   0.3277  85.8019 0000089 198.8023  35.8414  1.00270178 46571
DIRECTV 12              
1 36131U 09075A   26167.59321398 -.00000106  00000+0  00000+0 0  9993
2 36131   0.0102 111.7598 0000411 292.3643 331.5752  1.00272950 46547
BEIDOU-2 G1             
1 36287U 10001A   26167.64125492 -.00000285  00000+0  00000+0 0  9997
2 36287   4.2916  60.4060 0002273 296.2190 279.6067  1.00270454 60162
SDO                     
1 36395U 10005A   26167.43606649 -.00000097  00000+0  00000+0 0  9997
2 36395  34.6505  86.3529 0001722  45.0039 188.2479  1.00269931 60058
INTELSAT 16 (IS-16)     
1 36397U 10006A   26167.52721507 -.00000246  00000+0  00000+0 0  9997
2 36397   0.0158 311.4266 0001940 154.3895 272.5641  1.00269164 59646
EWS-G2 (GOES 15)        
1 36411U 10008A   26167.55491948  .00000015  00000+0  00000+0 0  9995
2 36411   1.2764  82.8686 0005450  42.7522  42.6897  1.00275917 59632
ECHOSTAR 14             
1 36499U 10010A   26167.59000730 -.00000002  00000+0  00000+0 0  9990
2 36499   0.0445  83.9997 0002339  19.9744 254.4087  1.00272580 46546
SES-1                   
1 36516U 10016A   26167.59356065 -.00000116  00000+0  00000+0 0  9997
2 36516   0.0127 336.0598 0002495 108.1319 293.3511  1.00271096 59026
